{
    "links": {
        "self": "http://www.neowsapp.com/rest/v1/neo/3467748?api_key=iIulBulltgU6a56xZRHN4H3l9WmuAYTsLGpBGhQ2"
    },
    "id": "3467748",
    "neo_reference_id": "3467748",
    "name": "(2009 SM98)",
    "designation": "2009 SM98",
    "nasa_jpl_url": "http://ssd.jpl.nasa.gov/sbdb.cgi?sstr=3467748",
    "absolute_magnitude_h": 22.3,
    "estimated_diameter": {
        "kilometers": {
            "estimated_diameter_min": 0.0921626549,
            "estimated_diameter_max": 0.2060819612
        },
        "meters": {
            "estimated_diameter_min": 92.1626548503,
            "estimated_diameter_max": 206.0819612321
        },
        "miles": {
            "estimated_diameter_min": 0.057267201,
            "estimated_diameter_max": 0.1280533543
        },
        "feet": {
            "estimated_diameter_min": 302.370924539,
            "estimated_diameter_max": 676.1219416887
        }
    },
    "is_potentially_hazardous_asteroid": false,
    "close_approach_data": [
        {
            "close_approach_date": "2009-09-12",
            "close_approach_date_full": "2009-Sep-12 22:35",
            "epoch_date_close_approach": 1252794900000,
            "relative_velocity": {
                "kilometers_per_second": "19.5831444827",
                "kilometers_per_hour": "70499.3201375713",
                "miles_per_hour": "43805.5358932592"
            },
            "miss_distance": {
                "astronomical": "0.023726567",
                "lunar": "9.229634563",
                "kilometers": "3549443.88561229",
                "miles": "2205522.159098002"
            },
            "orbiting_body": "Earth"
        },
        {
            "close_approach_date": "2061-03-19",
            "close_approach_date_full": "2061-Mar-19 11:38",
            "epoch_date_close_approach": 2878457880000,
            "relative_velocity": {
                "kilometers_per_second": "5.0254034813",
                "kilometers_per_hour": "18091.4525326246",
                "miles_per_hour": "11241.3250472855"
            },
            "miss_distance": {
                "astronomical": "1.1455019624",
                "lunar": "445.6002633736",
                "kilometers": "171364653.655860088",
                "miles": "106481058.1894736944"
            },
            "orbiting_body": "Juptr"
        },
        {
            "close_approach_date": "2084-11-09",
            "close_approach_date_full": "2084-Nov-09 02:58",
            "epoch_date_close_approach": 3624577080000,
            "relative_velocity": {
                "kilometers_per_second": "6.7589706074",
                "kilometers_per_hour": "24332.2941865548",
                "miles_per_hour": "15119.1413516401"
            },
            "miss_distance": {
                "astronomical": "1.4240715261",
                "lunar": "553.9638236529",
                "kilometers": "213038067.032209407",
                "miles": "132375716.5102755366"
            },
            "orbiting_body": "Juptr"
        },
        {
            "close_approach_date": "2090-04-02",
            "close_approach_date_full": "2090-Apr-02 00:22",
            "epoch_date_close_approach": 3794775720000,
            "relative_velocity": {
                "kilometers_per_second": "27.8595091463",
                "kilometers_per_hour": "100294.2329268337",
                "miles_per_hour": "62318.936009454"
            },
            "miss_distance": {
                "astronomical": "0.3527653893",
                "lunar": "137.2257364377",
                "kilometers": "52772950.849000791",
                "miles": "32791591.0912852758"
            },
            "orbiting_body": "Earth"
        },
        {
            "close_approach_date": "2096-07-28",
            "close_approach_date_full": "2096-Jul-28 20:31",
            "epoch_date_close_approach": 3994345860000,
            "relative_velocity": {
                "kilometers_per_second": "9.3904753663",
                "kilometers_per_hour": "33805.7113187671",
                "miles_per_hour": "21005.5543469306"
            },
            "miss_distance": {
                "astronomical": "1.993428538",
                "lunar": "775.443701282",
                "kilometers": "298212663.28201406",
                "miles": "185300756.453191628"
            },
            "orbiting_body": "Juptr"
        }
    ],
    "orbital_data": {
        "orbit_id": "15",
        "orbit_determination_date": "2017-04-06 08:59:52",
        "first_observation_date": "2009-09-24",
        "last_observation_date": "2009-10-11",
        "data_arc_in_days": 17,
        "observations_used": 45,
        "orbit_uncertainty": "8",
        "minimum_orbit_intersection": ".00375208",
        "jupiter_tisserand_invariant": "3.106",
        "epoch_osculation": "2455103.5",
        "eccentricity": ".7007882290570983",
        "semi_major_axis": "2.433377477283007",
        "inclination": "7.503173646664256",
        "ascending_node_longitude": "166.9668872676803",
        "orbital_period": "1386.4769468438",
        "perihelion_distance": ".7280951843504192",
        "perihelion_argument": "110.8435301112341",
        "aphelion_distance": "4.138659770215595",
        "perihelion_time": "2455044.035332398502",
        "mean_anomaly": "15.44005501517438",
        "mean_motion": ".2596509093205697",
        "equinox": "J2000",
        "orbit_class": {
            "orbit_class_type": "APO",
            "orbit_class_description": "Near-Earth asteroid orbits which cross the Earth’s orbit similar to that of 1862 Apollo",
            "orbit_class_range": "a (semi-major axis) > 1.0 AU; q (perihelion) < 1.017 AU"
        }
    },
    "is_sentry_object": false
}